NORAD_CAT_ID,OBJECT_NAME,OBJECT_TYPE,EPOCH,MEAN_MOTION,ECCENTRICITY,INCLINATION,RA_OF_ASC_NODE,ARG_OF_PERICENTER,MEAN_ANOMALY,BSTAR,MEAN_MOTION_DOT,MEAN_MOTION_DDOT,TLE_LINE0,TLE_LINE1,TLE_LINE2,SEMIMAJOR_AXIS,PERIOD,APOGEE,PERIGEE,DECAYED
52265.0,STARLINK-3740,PAYLOAD,2023-03-15 22:08:59,15.08854243,9.63e-05,53.2146,321.2755,122.8912,237.2173,0.0014181,0.00022362,0.0,0 STARLINK-3740,1 52265U 22041E   23074.92290510  .00022362  00000-0  14181-2 0  9995,2 52265  53.2146 321.2755 0000963 122.8912 237.2173 15.08854243 49841,6917.837,95.437,540.368,539.036,0.0
52265.0,STARLINK-3740,PAYLOAD,2023-03-16 02:55:08,15.0885583,9.26e-05,53.2145,320.3854,98.8818,261.2279,0.00076231,0.0001187,0.0,0 STARLINK-3740,1 52265U 22041E   23075.12162438  .00011870  00000-0  76231-3 0  9992,2 52265  53.2145 320.3854 0000926  98.8818 261.2279 15.08855830 51093,6917.832,95.437,540.338,539.056,0.0
52265.0,STARLINK-3740,PAYLOAD,2023-03-16 20:24:24,15.08815444,8.55e-05,53.2144,317.1156,55.7462,304.3611,0.00077067,0.0001199,0.0,0 STARLINK-3740,1 52265U 22041E   23075.85027939  .00011990  00000-0  77067-3 0  9999,2 52265  53.2144 317.1156 0000855  55.7462 304.3611 15.08815444 49980,6917.955,95.439,540.412,539.229,0.0
52265.0,STARLINK-3740,PAYLOAD,2023-03-16 21:59:47,15.08819519,9.91e-05,53.2143,316.8181,109.5384,250.5715,0.00085915,0.00013404,0.0,0 STARLINK-3740,1 52265U 22041E   23075.91651879  .00013404  00000-0  85915-3 0  9995,2 52265  53.2143 316.8181 0000991 109.5384 250.5715 15.08819519 51218,6917.943,95.439,540.494,539.122,0.0
52265.0,STARLINK-3740,PAYLOAD,2023-03-17 09:07:29,15.08832794,0.0001082,53.2138,314.7358,66.0166,294.0939,0.0005856,9.042e-05,0.0,0 STARLINK-3740,1 52265U 22041E   23076.38020290  .00009042  00000-0  58560-3 0  9993,2 52265  53.2138 314.7358 0001082  66.0166 294.0939 15.08832794 50065,6917.902,95.438,540.516,539.019,0.0
52265.0,STARLINK-3740,PAYLOAD,2023-03-17 21:50:34,15.0885184,0.0001052,53.2135,312.3564,63.8791,296.2309,0.00091735,0.00014347,0.0,0 STARLINK-3740,1 52265U 22041E   23076.91012047  .00014347  00000-0  91735-3 0  9998,2 52265  53.2135 312.3564 0001052  63.8791 296.2309 15.08851840 50148,6917.844,95.437,540.437,538.981,0.0
52265.0,STARLINK-3740,PAYLOAD,2023-03-18 01:01:20,15.0886116,0.0001257,53.2144,311.7619,64.4781,295.6341,0.0010978,0.00017237,0.0,0 STARLINK-3740,1 52265U 22041E   23077.04259837  .00017237  00000-0  10978-2 0  9993,2 52265  53.2144 311.7619 0001257  64.4781 295.6341 15.08861160 51387,6917.816,95.436,540.55,538.811,0.0
52265.0,STARLINK-3740,PAYLOAD,2023-03-18 08:58:15,15.08853879,0.0001015,53.2143,310.2744,78.2899,281.8207,0.0005742,8.866e-05,0.0,0 STARLINK-3740,1 52265U 22041E   23077.37379601  .00008866  00000-0  57420-3 0  9993,2 52265  53.2143 310.2744 0001015  78.2899 281.8207 15.08853879 51436,6917.838,95.437,540.405,539.001,0.0
52265.0,STARLINK-3740,PAYLOAD,2023-03-18 21:41:20,15.08851353,0.0001297,53.2133,307.8961,74.4529,285.6606,0.00024102,3.551e-05,0.0,0 STARLINK-3740,1 52265U 22041E   23077.90371478  .00003551  00000-0  24102-3 0  9993,2 52265  53.2133 307.8961 0001297  74.4529 285.6606 15.08851353 51517,6917.846,95.437,540.608,538.813,0.0
52265.0,STARLINK-3740,PAYLOAD,2023-03-19 08:49:02,15.08850859,0.0001363,53.2134,305.8145,72.8987,287.2154,0.00016104,2.277e-05,0.0,0 STARLINK-3740,1 52265U 22041E   23078.36739269  .00002277  00000-0  16104-3 0  9997,2 52265  53.2134 305.8145 0001363  72.8987 287.2154 15.08850859 50362,6917.847,95.437,540.655,538.769,0.0
52265.0,STARLINK-3740,PAYLOAD,2023-03-19 21:32:07,15.08846664,0.0001356,53.2149,303.4358,77.7733,282.3411,6.9967e-05,8.26e-06,0.0,0 STARLINK-3740,1 52265U 22041E   23078.89731221  .00000826  00000-0  69967-4 0  9999,2 52265  53.2149 303.4358 0001356  77.7733 282.3411 15.08846664 51668,6917.86,95.437,540.663,538.787,0.0
52265.0,STARLINK-3740,PAYLOAD,2023-03-20 00:42:54,15.088493,0.000136,53.2147,302.8406,83.0074,277.1072,8.9504e-05,1.137e-05,0.0,0 STARLINK-3740,1 52265U 22041E   23079.02979170  .00001137  00000-0  89504-4 0  9997,2 52265  53.2147 302.8406 0001360  83.0074 277.1072 15.08849300 50468,6917.852,95.437,540.658,538.776,0.0
52265.0,STARLINK-3740,PAYLOAD,2023-03-20 18:12:08,15.08841966,0.0001422,53.2146,299.5685,88.2087,271.9067,7.2867e-05,8.72e-06,0.0,0 STARLINK-3740,1 52265U 22041E   23079.75843462  .00000872  00000-0  72867-4 0  9990,2 52265  53.2146 299.5685 0001422  88.2087 271.9067 15.08841966 51791,6917.874,95.437,540.723,538.756,0.0
52265.0,STARLINK-3740,PAYLOAD,2023-03-21 05:19:50,15.08840471,0.000129,53.2143,297.4871,91.9126,268.2014,0.0001866,2.683e-05,0.0,0 STARLINK-3740,1 52265U 22041E   23080.22211466  .00002683  00000-0  18660-3 0  9999,2 52265  53.2143 297.4871 0001290  91.9126 268.2014 15.08840471 50644,6917.879,95.438,540.636,538.852,0.0
52265.0,STARLINK-3740,PAYLOAD,2023-03-21 21:13:42,15.0884081,0.0001166,53.2139,294.513,94.1523,265.9602,0.00010787,1.429e-05,0.0,0 STARLINK-3740,1 52265U 22041E   23080.88451406  .00001429  00000-0  10787-3 0  9990,2 52265  53.2139 294.5130 0001166  94.1523 265.9602 15.08840810 51963,6917.878,95.438,540.55,538.936,0.0
52265.0,STARLINK-3740,PAYLOAD,2023-03-22 21:04:29,15.08840969,0.0001112,53.2137,290.054,102.3792,257.7324,1.7111e-05,-1.5e-07,0.0,0 STARLINK-3740,1 52265U 22041E   23081.87811402 -.00000015  00000-0  17111-4 0  9996,2 52265  53.2137 290.0540 0001112 102.3792 257.7324 15.08840969 50894,6917.877,95.437,540.512,538.973,0.0
52265.0,STARLINK-3740,PAYLOAD,2023-03-23 20:55:16,15.08835154,0.0001193,53.2128,285.5947,111.7241,248.3879,0.00043037,6.567e-05,0.0,0 STARLINK-3740,1 52265U 22041E   23082.87172147  .00006567  00000-0  43037-3 0  9995,2 52265  53.2128 285.5947 0001193 111.7241 248.3879 15.08835154 52260,6917.895,95.438,540.586,538.935,0.0
52265.0,STARLINK-3740,PAYLOAD,2023-03-23 22:30:39,15.08843559,0.0001134,53.2128,285.2973,109.9721,250.1393,0.00022257,3.256e-05,0.0,0 STARLINK-3740,1 52265U 22041E   23082.93795732  .00003256  00000-0  22257-3 0  9996,2 52265  53.2128 285.2973 0001134 109.9721 250.1393 15.08843559 51059,6917.87,95.437,540.519,538.95,0.0
52265.0,STARLINK-3740,PAYLOAD,2023-03-24 00:06:02,15.08848612,9.89e-05,53.2119,284.9973,96.3442,263.7663,0.00027458,4.086e-05,0.0,0 STARLINK-3740,1 52265U 22041E   23083.00419411  .00004086  00000-0  27458-3 0  9992,2 52265  53.2119 284.9973 0000989  96.3442 263.7663 15.08848612 52282,6917.854,95.437,540.403,539.035,0.0
52265.0,STARLINK-3740,PAYLOAD,2023-03-24 20:46:01,15.08885942,0.000117,53.2128,281.1308,87.6296,272.483,0.0010065,0.00015787,0.0,0 STARLINK-3740,1 52265U 22041E   23083.86529666  .00015787  00000-0  10065-2 0  9995,2 52265  53.2128 281.1308 0001170  87.6296 272.4830 15.08885942 52411,6917.74,95.435,540.414,538.796,0.0
52265.0,STARLINK-3740,PAYLOAD,2023-03-25 06:18:21,15.08827142,0.0003006,53.2127,279.3467,74.3716,285.7608,-0.00098634,-0.00015948,0.0,0 STARLINK-3740,1 52265U 22041E   23084.26275065 -.00015948  00000-0 -98634-3 0  9991,2 52265  53.2127 279.3467 0003006  74.3716 285.7608 15.08827142 52479,6917.92,95.438,541.864,537.705,0.0
52265.0,STARLINK-3740,PAYLOAD,2023-03-25 19:01:27,15.08799515,0.000126,53.2133,276.9672,59.8574,300.2543,-0.00075846,-0.00012325,0.0,0 STARLINK-3740,1 52265U 22041E   23084.79267985 -.00012325  00000-0 -75846-3 0  9997,2 52265  53.2133 276.9672 0001260  59.8574 300.2543 15.08799515 51334,6918.004,95.44,540.741,538.997,0.0
52265.0,STARLINK-3740,PAYLOAD,2023-03-26 18:52:16,15.08831297,0.0001464,53.2134,272.5078,48.8066,311.3053,0.0017813,0.00028168,0.0,0 STARLINK-3740,1 52265U 22041E   23085.78630582  .00028168  00000-0  17813-2 0  9993,2 52265  53.2134 272.5078 0001464  48.8066 311.3053 15.08831297 52702,6917.907,95.438,540.785,538.759,0.0
52265.0,STARLINK-3740,PAYLOAD,2023-03-26 22:03:03,15.08836934,0.0001468,53.2136,271.9127,48.9237,311.1882,0.001716,0.00027125,0.0,0 STARLINK-3740,1 52265U 22041E   23085.91878622  .00027125  00000-0  17160-2 0  9994,2 52265  53.2136 271.9127 0001468  48.9237 311.1882 15.08836934 51505,6917.89,95.438,540.77,538.739,0.0
52265.0,STARLINK-3740,PAYLOAD,2023-03-27 12:21:30,15.08866376,0.0001532,53.2134,269.2369,46.5811,313.5308,0.0015056,0.00023772,0.0,0 STARLINK-3740,1 52265U 22041E   23086.51494041  .00023772  00000-0  15056-2 0  9996,2 52265  53.2134 269.2369 0001532  46.5811 313.5308 15.08866376 51596,6917.8,95.436,540.725,538.605,0.0
52265.0,STARLINK-3740,PAYLOAD,2023-03-27 18:43:02,15.08879414,0.0001535,53.2137,268.0471,47.0238,313.0883,0.0015727,0.00024857,0.0,0 STARLINK-3740,1 52265U 22041E   23086.77989423  .00024857  00000-0  15727-2 0  9997,2 52265  53.2137 268.0471 0001535  47.0238 313.0883 15.08879414 51637,6917.76,95.435,540.687,538.563,0.0
52265.0,STARLINK-3740,PAYLOAD,2023-03-28 12:12:16,15.08873,0.0001712,53.2138,264.776,47.9949,312.1189,0.001519,0.00023992,0.0,0 STARLINK-3740,1 52265U 22041E   23087.50852758  .00023992  00000-0  15190-2 0  9992,2 52265  53.2138 264.7760 0001712  47.9949 312.1189 15.08873000 51743,6917.78,95.435,540.829,538.46,0.0
52265.0,STARLINK-3740,PAYLOAD,2023-03-28 15:23:02,15.08857735,0.0001307,53.2138,264.181,56.9054,303.2064,0.0011119,0.00017461,0.0,0 STARLINK-3740,1 52265U 22041E   23087.64100539  .00017461  00000-0  11119-2 0  9991,2 52265  53.2138 264.1810 0001307  56.9054 303.2064 15.08857735 52987,6917.826,95.436,540.595,538.787,0.0
52265.0,STARLINK-3740,PAYLOAD,2023-03-28 18:33:49,15.08859078,0.0001284,53.2138,263.5865,55.3789,304.7324,0.0014726,0.00023238,0.0,0 STARLINK-3740,1 52265U 22041E   23087.77348422  .00023238  00000-0  14726-2 0  9996,2 52265  53.2138 263.5865 0001284  55.3789 304.7324 15.08859078 51786,6917.822,95.436,540.575,538.799,0.0
52265.0,STARLINK-3740,PAYLOAD,2023-03-29 04:06:07,15.08857783,0.0001358,53.2137,261.8031,56.6545,303.4577,0.0010581,0.000166,0.0,0 STARLINK-3740,1 52265U 22041E   23088.17092321  .00016600  00000-0  10581-2 0  9995,2 52265  53.2137 261.8031 0001358  56.6545 303.4577 15.08857783 53067,6917.826,95.436,540.63,538.752,0.0
